STARLINK-31089          
1 58610U 23200X   26068.31469296  .00000526  00000+0  29279-4 0  9994
2 58610  43.0021 170.8996 0001177 274.4243  85.6473 15.26736652123556
HERMES-2                
1 63243U 25052AK  26068.92847372  .00009456  00000+0  34839-3 0  9999
2 63243  97.4004 324.4926 0006340  99.4160 260.7796 15.28021069 54859
